{
  "type": "FeatureCollection",
  "features": [
    {
      "type": "Feature",
      "properties": {
        "norad_id": 48859,
        "name": "GPS BIII-5  (PRN 11)",
        "group": "gps-ops",
        "lat": -34.677210141653134,
        "lon": -49.27935822473249,
        "alt_km": 20178.433255570828,
        "timestamp": "2025-12-25T22:42:17.270436+00:00",
        "meta_object_name": "GPS BIII-5  (PRN 11)",
        "meta_object_id": "2021-054A",
        "meta_epoch": "2025-12-08T04:14:32.423424",
        "meta_mean_motion": 2.00553627,
        "meta_eccentricity": 0.0024678,
        "meta_inclination": 55.2581,
        "meta_ra_of_asc_node": 340.1367,
        "meta_arg_of_pericenter": 233.3993,
        "meta_mean_anomaly": 212.8594,
        "meta_ephemeris_type": 0,
        "meta_classification_type": "U",
        "meta_norad_cat_id": 48859,
        "meta_element_set_no": 999,
        "meta_rev_at_epoch": 3292,
        "meta_bstar": 0,
        "meta_mean_motion_dot": -8.6e-07,
        "meta_mean_motion_ddot": 0,
        "tle_line1": "1 48859U 21054A   25342.17676416 -.00000086  00000+0  00000+0 0  9993",
        "tle_line2": "2 48859  55.2581 340.1367 0024678 233.3993 212.8594  2.00553627 32922"
      },
      "geometry": {
        "type": "Point",
        "coordinates": [
          -49.27935822473249,
          -34.677210141653134
        ]
      }
    },
    {
      "type": "Feature",
      "properties": {
        "norad_id": 55268,
        "name": "GPS BIII-6  (PRN 28)",
        "group": "gps-ops",
        "lat": -1.2784186396391446,
        "lon": 154.4257430771811,
        "alt_km": 20173.610900181513,
        "timestamp": "2025-12-25T22:42:17.270447+00:00",
        "meta_object_name": "GPS BIII-6  (PRN 28)",
        "meta_object_id": "2023-009A",
        "meta_epoch": "2025-12-22T10:59:58.065216",
        "meta_mean_motion": 2.00554901,
        "meta_eccentricity": 0.00037047,
        "meta_inclination": 55.1065,
        "meta_ra_of_asc_node": 155.4638,
        "meta_arg_of_pericenter": 355.7912,
        "meta_mean_anomaly": 4.4255,
        "meta_ephemeris_type": 0,
        "meta_classification_type": "U",
        "meta_norad_cat_id": 55268,
        "meta_element_set_no": 999,
        "meta_rev_at_epoch": 2170,
        "meta_bstar": 0,
        "meta_mean_motion_dot": 7.4e-07,
        "meta_mean_motion_ddot": 0,
        "tle_line1": "1 55268U 23009A   25356.45831094  .00000074  00000+0  00000+0 0  9994",
        "tle_line2": "2 55268  55.1065 155.4638 0003704 355.7912   4.4255  2.00554901 21704"
      },
      "geometry": {
        "type": "Point",
        "coordinates": [
          154.4257430771811,
          -1.2784186396391446
        ]
      }
    },
    {
      "type": "Feature",
      "properties": {
        "norad_id": 62339,
        "name": "GPS BIII-7  (PRN 01)",
        "group": "gps-ops",
        "lat": 52.737848964367664,
        "lon": 48.63494292888647,
        "alt_km": 20175.755274605497,
        "timestamp": "2025-12-25T22:42:17.270459+00:00",
        "meta_object_name": "GPS BIII-7  (PRN 01)",
        "meta_object_id": "2024-242A",
        "meta_epoch": "2025-12-25T14:06:28.687392",
        "meta_mean_motion": 2.00568026,
        "meta_eccentricity": 0.0012842,
        "meta_inclination": 54.9198,
        "meta_ra_of_asc_node": 341.2207,
        "meta_arg_of_pericenter": 346.3867,
        "meta_mean_anomaly": 191.38,
        "meta_ephemeris_type": 0,
        "meta_classification_type": "U",
        "meta_norad_cat_id": 62339,
        "meta_element_set_no": 999,
        "meta_rev_at_epoch": 777,
        "meta_bstar": 0,
        "meta_mean_motion_dot": -6e-07,
        "meta_mean_motion_ddot": 0,
        "tle_line1": "1 62339U 24242A   25359.58783203 -.00000060  00000+0  00000+0 0  9992",
        "tle_line2": "2 62339  54.9198 341.2207 0012842 346.3867 191.3800  2.00568026  7776"
      },
      "geometry": {
        "type": "Point",
        "coordinates": [
          48.63494292888647,
          52.737848964367664
        ]
      }
    },
    {
      "type": "Feature",
      "properties": {
        "norad_id": 64202,
        "name": "GPS BIII-8  (PRN 21)",
        "group": "gps-ops",
        "lat": -54.839712521037406,
        "lon": -59.98865816294326,
        "alt_km": 20177.483702548794,
        "timestamp": "2025-12-25T22:42:17.270471+00:00",
        "meta_object_name": "GPS BIII-8  (PRN 21)",
        "meta_object_id": "2025-116A",
        "meta_epoch": "2025-12-25T04:39:33.135264",
        "meta_mean_motion": 2.00557406,
        "meta_eccentricity": 0.000599,
        "meta_inclination": 55.1144,
        "meta_ra_of_asc_node": 38.1386,
        "meta_arg_of_pericenter": 310.9546,
        "meta_mean_anomaly": 131.5738,
        "meta_ephemeris_type": 0,
        "meta_classification_type": "U",
        "meta_norad_cat_id": 64202,
        "meta_element_set_no": 999,
        "meta_rev_at_epoch": 438,
        "meta_bstar": 0,
        "meta_mean_motion_dot": -5.1e-07,
        "meta_mean_motion_ddot": 0,
        "tle_line1": "1 64202U 25116A   25359.19413351 -.00000051  00000+0  00000+0 0  9995",
        "tle_line2": "2 64202  55.1144  38.1386 0005990 310.9546 131.5738  2.00557406  4388"
      },
      "geometry": {
        "type": "Point",
        "coordinates": [
          -59.98865816294326,
          -54.839712521037406
        ]
      }
    }
  ]
}